{
    "links": {
        "self": "http://www.neowsapp.com/rest/v1/neo/3755754?api_key=iIulBulltgU6a56xZRHN4H3l9WmuAYTsLGpBGhQ2"
    },
    "id": "3755754",
    "neo_reference_id": "3755754",
    "name": "(2016 OA)",
    "designation": "2016 OA",
    "nasa_jpl_url": "http://ssd.jpl.nasa.gov/sbdb.cgi?sstr=3755754",
    "absolute_magnitude_h": 25.4,
    "estimated_diameter": {
        "kilometers": {
            "estimated_diameter_min": 0.022108281,
            "estimated_diameter_max": 0.0494356193
        },
        "meters": {
            "estimated_diameter_min": 22.1082810359,
            "estimated_diameter_max": 49.435619262
        },
        "miles": {
            "estimated_diameter_min": 0.0137374447,
            "estimated_diameter_max": 0.0307178602
        },
        "feet": {
            "estimated_diameter_min": 72.5337327539,
            "estimated_diameter_max": 162.1903570994
        }
    },
    "is_potentially_hazardous_asteroid": false,
    "close_approach_data": [
        {
            "close_approach_date": "2016-07-18",
            "close_approach_date_full": "2016-Jul-18 08:15",
            "epoch_date_close_approach": 1468829700000,
            "relative_velocity": {
                "kilometers_per_second": "17.6115366772",
                "kilometers_per_hour": "63401.5320378574",
                "miles_per_hour": "39395.2463931898"
            },
            "miss_distance": {
                "astronomical": "0.01158152",
                "lunar": "4.50521128",
                "kilometers": "1732570.7233624",
                "miles": "1076569.52630512"
            },
            "orbiting_body": "Earth"
        }
    ],
    "orbital_data": {
        "orbit_id": "3",
        "orbit_determination_date": "2017-04-06 08:24:50",
        "first_observation_date": "2016-07-16",
        "last_observation_date": "2016-07-18",
        "data_arc_in_days": 2,
        "observations_used": 45,
        "orbit_uncertainty": "8",
        "minimum_orbit_intersection": ".00552688",
        "jupiter_tisserand_invariant": "3.117",
        "epoch_osculation": "2457586.5",
        "eccentricity": ".6922508372590036",
        "semi_major_axis": "2.44543556958841",
        "inclination": "1.085490750679075",
        "ascending_node_longitude": "133.4662259410802",
        "orbital_period": "1396.795297195288",
        "perihelion_distance": ".7525807490778846",
        "perihelion_argument": "231.7526191165101",
        "aphelion_distance": "4.138290390098934",
        "perihelion_time": "2457631.301529950195",
        "mean_anomaly": "348.4531750540285",
        "mean_motion": ".2577328265085559",
        "equinox": "J2000",
        "orbit_class": {
            "orbit_class_type": "APO",
            "orbit_class_description": "Near-Earth asteroid orbits which cross the Earth’s orbit similar to that of 1862 Apollo",
            "orbit_class_range": "a (semi-major axis) > 1.0 AU; q (perihelion) < 1.017 AU"
        }
    },
    "is_sentry_object": false
}